[
  {
    "OBJECT_NAME": "STARLINK-4771",
    "OBJECT_ID": "22114R",
    "EPOCH": "2025-11-10T20:36:05.721984",
    "MEAN_MOTION": 15.08831908,
    "ECCENTRICITY": 0.0001339,
    "INCLINATION": 53.2156,
    "RA_OF_ASC_NODE": 117.4504,
    "ARG_OF_PERICENTER": 82.6701,
    "MEAN_ANOMALY": 277.4443,
    "EPHEMERIS_TYPE": 0,
    "CLASSIFICATION_TYPE": "U",
    "NORAD_CAT_ID": 53833,
    "ELEMENT_SET_NO": 999,
    "REV_AT_EPOCH": 17489,
    "BSTAR": 0.00012565000000000002,
    "MEAN_MOTION_DOT": 1.712e-05,
    "MEAN_MOTION_DDOT": 0.0,
    "TLE_LINE1": "1 53833U 22114R   25314.85839956  .00001712  00000+0  12565-3 0  9992",
    "TLE_LINE2": "2 53833  53.2156 117.4504 0001339  82.6701 277.4443 15.08831908174891",
    "COMMENT": "Grouped by shell and plane from TLE"
  },
  {
    "OBJECT_NAME": "STARLINK-4737",
    "OBJECT_ID": "22114S",
    "EPOCH": "2025-11-11T04:05:05.833824",
    "MEAN_MOTION": 15.08855578,
    "ECCENTRICITY": 0.0001153,
    "INCLINATION": 53.2175,
    "RA_OF_ASC_NODE": 115.8433,
    "ARG_OF_PERICENTER": 71.2881,
    "MEAN_ANOMALY": 288.8236,
    "EPHEMERIS_TYPE": 0,
    "CLASSIFICATION_TYPE": "U",
    "NORAD_CAT_ID": 53834,
    "ELEMENT_SET_NO": 999,
    "REV_AT_EPOCH": 17494,
    "BSTAR": 0.00021820000000000002,
    "MEAN_MOTION_DOT": 3.188e-05,
    "MEAN_MOTION_DDOT": 0.0,
    "TLE_LINE1": "1 53834U 22114S   25315.17020641  .00003188  00000+0  21820-3 0  9995",
    "TLE_LINE2": "2 53834  53.2175 115.8433 0001153  71.2881 288.8236 15.08855578174944",
    "COMMENT": "Grouped by shell and plane from TLE"
  },
  {
    "OBJECT_NAME": "STARLINK-4783",
    "OBJECT_ID": "22114T",
    "EPOCH": "2025-11-10T20:24:06.549120",
    "MEAN_MOTION": 15.08845543,
    "ECCENTRICITY": 0.0001632,
    "INCLINATION": 53.2199,
    "RA_OF_ASC_NODE": 117.3982,
    "ARG_OF_PERICENTER": 83.463,
    "MEAN_ANOMALY": 276.6548,
    "EPHEMERIS_TYPE": 0,
    "CLASSIFICATION_TYPE": "U",
    "NORAD_CAT_ID": 53835,
    "ELEMENT_SET_NO": 999,
    "REV_AT_EPOCH": 17489,
    "BSTAR": 0.0,
    "MEAN_MOTION_DOT": -3.025e-05,
    "MEAN_MOTION_DDOT": 0.0,
    "TLE_LINE1": "1 53835U 22114T   25314.85007580 -.00003025  00000+0 -17203-3 0  9999",
    "TLE_LINE2": "2 53835  53.2199 117.3982 0001632  83.4630 276.6548 15.08845543174892",
    "COMMENT": "Grouped by shell and plane from TLE"
  },
  {
    "OBJECT_NAME": "STARLINK-4776",
    "OBJECT_ID": "22114V",
    "EPOCH": "2025-11-10T12:16:33.876480",
    "MEAN_MOTION": 15.088412,
    "ECCENTRICITY": 0.0001518,
    "INCLINATION": 53.2155,
    "RA_OF_ASC_NODE": 118.8395,
    "ARG_OF_PERICENTER": 93.7331,
    "MEAN_ANOMALY": 266.3835,
    "EPHEMERIS_TYPE": 0,
    "CLASSIFICATION_TYPE": "U",
    "NORAD_CAT_ID": 53837,
    "ELEMENT_SET_NO": 999,
    "REV_AT_EPOCH": 17484,
    "BSTAR": 5.4431e-05,
    "MEAN_MOTION_DOT": 5.78e-06,
    "MEAN_MOTION_DDOT": 0.0,
    "TLE_LINE1": "1 53837U 22114V   25314.51150320  .00000578  00000+0  54431-4 0  9998",
    "TLE_LINE2": "2 53837  53.2155 118.8395 0001518  93.7331 266.3835 15.08841200174841",
    "COMMENT": "Grouped by shell and plane from TLE"
  },
  {
    "OBJECT_NAME": "STARLINK-5009",
    "OBJECT_ID": "22119AU",
    "EPOCH": "2025-11-10T20:02:56.122656",
    "MEAN_MOTION": 15.0885055,
    "ECCENTRICITY": 0.0001237,
    "INCLINATION": 53.2153,
    "RA_OF_ASC_NODE": 117.5769,
    "ARG_OF_PERICENTER": 84.9127,
    "MEAN_ANOMALY": 275.2006,
    "EPHEMERIS_TYPE": 0,
    "CLASSIFICATION_TYPE": "U",
    "NORAD_CAT_ID": 53928,
    "ELEMENT_SET_NO": 999,
    "REV_AT_EPOCH": 17402,
    "BSTAR": 0.00034139,
    "MEAN_MOTION_DOT": 5.151e-05,
    "MEAN_MOTION_DDOT": 0.0,
    "TLE_LINE1": "1 53928U 22119AU  25314.83537179  .00005151  00000+0  34139-3 0  9994",
    "TLE_LINE2": "2 53928  53.2153 117.5769 0001237  84.9127 275.2006 15.08850550174021",
    "COMMENT": "Grouped by shell and plane from TLE"
  },
  {
    "OBJECT_NAME": "STARLINK-5010",
    "OBJECT_ID": "22119AW",
    "EPOCH": "2025-11-11T03:38:38.507712",
    "MEAN_MOTION": 15.0884985,
    "ECCENTRICITY": 8.26e-05,
    "INCLINATION": 53.2181,
    "RA_OF_ASC_NODE": 115.9995,
    "ARG_OF_PERICENTER": 82.4444,
    "MEAN_ANOMALY": 277.6642,
    "EPHEMERIS_TYPE": 0,
    "CLASSIFICATION_TYPE": "U",
    "NORAD_CAT_ID": 53930,
    "ELEMENT_SET_NO": 999,
    "REV_AT_EPOCH": 17407,
    "BSTAR": 0.00016857,
    "MEAN_MOTION_DOT": 2.397e-05,
    "MEAN_MOTION_DDOT": 0.0,
    "TLE_LINE1": "1 53930U 22119AW  25315.15183458  .00002397  00000+0  16857-3 0  9996",
    "TLE_LINE2": "2 53930  53.2181 115.9995 0000826  82.4444 277.6642 15.08849850174074",
    "COMMENT": "Grouped by shell and plane from TLE"
  },
  {
    "OBJECT_NAME": "STARLINK-4772",
    "OBJECT_ID": "22119AY",
    "EPOCH": "2025-11-10T20:27:28.706112",
    "MEAN_MOTION": 15.08837915,
    "ECCENTRICITY": 0.000156,
    "INCLINATION": 53.2153,
    "RA_OF_ASC_NODE": 112.6911,
    "ARG_OF_PERICENTER": 89.4895,
    "MEAN_ANOMALY": 270.6276,
    "EPHEMERIS_TYPE": 0,
    "CLASSIFICATION_TYPE": "U",
    "NORAD_CAT_ID": 53932,
    "ELEMENT_SET_NO": 999,
    "REV_AT_EPOCH": 17410,
    "BSTAR": 6.868e-05,
    "MEAN_MOTION_DOT": 8.05e-06,
    "MEAN_MOTION_DDOT": 0.0,
    "TLE_LINE1": "1 53932U 22119AY  25314.85241558  .00000805  00000+0  68680-4 0  9994",
    "TLE_LINE2": "2 53932  53.2153 112.6911 0001560  89.4895 270.6276 15.08837915174109",
    "COMMENT": "Grouped by shell and plane from TLE"
  },
  {
    "OBJECT_NAME": "STARLINK-4782",
    "OBJECT_ID": "22119AZ",
    "EPOCH": "2025-11-10T21:33:02.070432",
    "MEAN_MOTION": 15.08828647,
    "ECCENTRICITY": 0.0001097,
    "INCLINATION": 53.2146,
    "RA_OF_ASC_NODE": 117.2564,
    "ARG_OF_PERICENTER": 109.6988,
    "MEAN_ANOMALY": 250.4122,
    "EPHEMERIS_TYPE": 0,
    "CLASSIFICATION_TYPE": "U",
    "NORAD_CAT_ID": 53933,
    "ELEMENT_SET_NO": 999,
    "REV_AT_EPOCH": 17403,
    "BSTAR": 0.00032098,
    "MEAN_MOTION_DOT": 4.823e-05,
    "MEAN_MOTION_DDOT": 0.0,
    "TLE_LINE1": "1 53933U 22119AZ  25314.89794063  .00004823  00000+0  32098-3 0  9990",
    "TLE_LINE2": "2 53933  53.2146 117.2564 0001097 109.6988 250.4122 15.08828647174030",
    "COMMENT": "Grouped by shell and plane from TLE"
  },
  {
    "OBJECT_NAME": "STARLINK-4775",
    "OBJECT_ID": "22119BA",
    "EPOCH": "2025-11-10T20:22:09.770016",
    "MEAN_MOTION": 15.08842617,
    "ECCENTRICITY": 0.0001434,
    "INCLINATION": 53.2162,
    "RA_OF_ASC_NODE": 112.6643,
    "ARG_OF_PERICENTER": 90.6798,
    "MEAN_ANOMALY": 269.4359,
    "EPHEMERIS_TYPE": 0,
    "CLASSIFICATION_TYPE": "U",
    "NORAD_CAT_ID": 53934,
    "ELEMENT_SET_NO": 999,
    "REV_AT_EPOCH": 17411,
    "BSTAR": 2.9353000000000002e-05,
    "MEAN_MOTION_DOT": 1.79e-06,
    "MEAN_MOTION_DDOT": 0.0,
    "TLE_LINE1": "1 53934U 22119BA  25314.84872419  .00000179  00000+0  29353-4 0  9999",
    "TLE_LINE2": "2 53934  53.2162 112.6643 0001434  90.6798 269.4359 15.08842617174113",
    "COMMENT": "Grouped by shell and plane from TLE"
  },
  {
    "OBJECT_NAME": "STARLINK-4791",
    "OBJECT_ID": "22119BC",
    "EPOCH": "2025-11-10T10:07:26.011776",
    "MEAN_MOTION": 15.08829667,
    "ECCENTRICITY": 0.0001035,
    "INCLINATION": 53.2158,
    "RA_OF_ASC_NODE": 114.2716,
    "ARG_OF_PERICENTER": 98.9893,
    "MEAN_ANOMALY": 261.1216,
    "EPHEMERIS_TYPE": 0,
    "CLASSIFICATION_TYPE": "U",
    "NORAD_CAT_ID": 53936,
    "ELEMENT_SET_NO": 999,
    "REV_AT_EPOCH": 17404,
    "BSTAR": 4.2935e-05,
    "MEAN_MOTION_DOT": 3.95e-06,
    "MEAN_MOTION_DDOT": 0.0,
    "TLE_LINE1": "1 53936U 22119BC  25314.42182884  .00000395  00000+0  42935-4 0  9996",
    "TLE_LINE2": "2 53936  53.2158 114.2716 0001035  98.9893 261.1216 15.08829667174046",
    "COMMENT": "Grouped by shell and plane from TLE"
  },
  {
    "OBJECT_NAME": "STARLINK-5189",
    "OBJECT_ID": "22136B",
    "EPOCH": "2025-11-11T03:49:15.056256",
    "MEAN_MOTION": 15.08831228,
    "ECCENTRICITY": 0.0001344,
    "INCLINATION": 53.2177,
    "RA_OF_ASC_NODE": 116.0393,
    "ARG_OF_PERICENTER": 85.731,
    "MEAN_ANOMALY": 274.3835,
    "EPHEMERIS_TYPE": 0,
    "CLASSIFICATION_TYPE": "U",
    "NORAD_CAT_ID": 54052,
    "ELEMENT_SET_NO": 999,
    "REV_AT_EPOCH": 16951,
    "BSTAR": 0.0,
    "MEAN_MOTION_DOT": -1.27e-05,
    "MEAN_MOTION_DDOT": 0.0,
    "TLE_LINE1": "1 54052U 22136B   25315.15920204 -.00001270  00000+0 -61760-4 0  9994",
    "TLE_LINE2": "2 54052  53.2177 116.0393 0001344  85.7310 274.3835 15.08831228169514",
    "COMMENT": "Grouped by shell and plane from TLE"
  },
  {
    "OBJECT_NAME": "STARLINK-5172",
    "OBJECT_ID": "22136P",
    "EPOCH": "2025-11-11T03:04:55.535520",
    "MEAN_MOTION": 15.08841088,
    "ECCENTRICITY": 0.0001393,
    "INCLINATION": 53.2169,
    "RA_OF_ASC_NODE": 111.5413,
    "ARG_OF_PERICENTER": 91.6803,
    "MEAN_ANOMALY": 268.4349,
    "EPHEMERIS_TYPE": 0,
    "CLASSIFICATION_TYPE": "U",
    "NORAD_CAT_ID": 54064,
    "ELEMENT_SET_NO": 999,
    "REV_AT_EPOCH": 16957,
    "BSTAR": 8.991000000000001e-05,
    "MEAN_MOTION_DOT": 1.143e-05,
    "MEAN_MOTION_DDOT": 0.0,
    "TLE_LINE1": "1 54064U 22136P   25315.12842055  .00001143  00000+0  89910-4 0  9995",
    "TLE_LINE2": "2 54064  53.2169 111.5413 0001393  91.6803 268.4349 15.08841088169573",
    "COMMENT": "Grouped by shell and plane from TLE"
  },
  {
    "OBJECT_NAME": "STARLINK-5203",
    "OBJECT_ID": "22136BF",
    "EPOCH": "2025-11-11T03:15:23.852736",
    "MEAN_MOTION": 15.08862052,
    "ECCENTRICITY": 0.0001197,
    "INCLINATION": 53.2159,
    "RA_OF_ASC_NODE": 110.8842,
    "ARG_OF_PERICENTER": 90.5482,
    "MEAN_ANOMALY": 269.5647,
    "EPHEMERIS_TYPE": 0,
    "CLASSIFICATION_TYPE": "U",
    "NORAD_CAT_ID": 54104,
    "ELEMENT_SET_NO": 999,
    "REV_AT_EPOCH": 16958,
    "BSTAR": 0.0,
    "MEAN_MOTION_DOT": -4.253e-05,
    "MEAN_MOTION_DDOT": 0.0,
    "TLE_LINE1": "1 54104U 22136BF  25315.13569274 -.00004253  00000+0 -24912-3 0  9997",
    "TLE_LINE2": "2 54104  53.2159 110.8842 0001197  90.5482 269.5647 15.08862052169586",
    "COMMENT": "Grouped by shell and plane from TLE"
  }
]